0 SCOUT B DEB
1 28797U 65063G   13285.73274353 -.00000016  00000-0  10000-3 0  1057
2 28797 069.2217 023.2691 0704292 073.6453 293.8661 11.94639435385957
0 SCOUT B DEB
1 28797U 65063G   13287.74212973 -.00000016  00000-0  10000-3 0  1061
2 28797 069.2118 020.1054 0702917 071.5389 296.0320 11.94637252386192
0 SCOUT B DEB
1 28797U 65063G   13288.91425423 -.00000016  00000-0  10000-3 0  1078
2 28797 069.2136 018.2693 0702315 070.5442 296.9987 11.94635861386338
0 SCOUT B DEB
1 28797U 65063G   13289.58403564 -.00000016  00000-0  10000-3 0  1085
2 28797 069.2103 017.2329 0704087 069.8543 297.6210 11.94634307386418
0 SCOUT B DEB
1 28797U 65063G   13290.58872207 -.00000016  00000-0  10000-3 0  1092
2 28797 069.2073 015.6690 0704237 068.9516 298.5091 11.94632060386538
0 SCOUT B DEB
1 28797U 65063G   13293.60274416 -.00000017  00000-0  10000-3 0  1109
2 28797 069.2262 010.9929 0698930 066.7224 300.5116 11.94623259386896
0 SCOUT B DEB
1 28797U 65063G   13294.85860881 -.00000017  00000-0  10000-3 0  1115
2 28797 069.2133 008.9997 0697130 065.3217 301.8625 11.94621671387046
